0 OPS 7613 (P/L 5)
1 04247U 69082F   13282.54012176  .00000042  00000-0  69963-4 0  6691
2 04247 070.0146 273.8460 0018923 038.7883 099.5593 13.95261518240374
0 OPS 7613 (P/L 5)
1 04247U 69082F   13283.54395490  .00000043  00000-0  70633-4 0  6704
2 04247 070.0146 271.7040 0018987 037.3963 101.8397 13.95261767240510
0 OPS 7613 (P/L 5)
1 04247U 69082F   13286.10666701 -.00000021  00000-0  23170-4 0  6728
2 04247 070.0148 266.2356 0019146 033.8225 014.4303 13.95262511240874
0 OPS 7613 (P/L 5)
1 04247U 69082F   13287.18823272 -.00000015  00000-0  27608-4 0  6739
2 04247 070.0150 263.9277 0019248 032.3570 047.1312 13.95262565241023
0 OPS 7613 (P/L 5)
1 04247U 69082F   13288.19239420  .00000028  00000-0  59872-4 0  6749
2 04247 070.0152 261.7849 0019303 030.9955 051.0341 13.95262711241163
0 OPS 7613 (P/L 5)
1 04247U 69082F   13289.49428693  .00000038  00000-0  67266-4 0  6753
2 04247 070.0155 259.0070 0019384 029.2048 110.4684 13.95262861241341
0 OPS 7613 (P/L 5)
1 04247U 69082F   13290.49704245  .00000055  00000-0  79676-4 0  6763
2 04247 070.0156 256.8675 0019465 027.8518 107.3034 13.95262902241489
0 OPS 7613 (P/L 5)
1 04247U 69082F   13291.50171105  .00000047  00000-0  73703-4 0  6776
2 04247 070.0157 254.7239 0019524 026.4734 113.7697 13.95263014241621
0 OPS 7613 (P/L 5)
1 04247U 69082F   13292.83891390  .00000054  00000-0  78540-4 0  6781
2 04247 070.0158 251.8708 0019580 024.5922 350.6076 13.95263276241815
0 OPS 7613 (P/L 5)
1 04247U 69082F   13293.84350898  .00000069  00000-0  90166-4 0  6791
2 04247 070.0159 249.7275 0019652 023.2591 356.6615 13.95263486241952
0 OPS 7613 (P/L 5)
1 04247U 69082F   13295.14683065  .00000076  00000-0  95330-4 0  6809
2 04247 070.0159 246.9468 0019714 021.4814 063.2618 13.95263760242132
0 OPS 7613 (P/L 5)
1 04247U 69082F   13296.15106319  .00000051  00000-0  76542-4 0  6811
2 04247 070.0159 244.8042 0019776 020.1310 067.5136 13.95264080242275
